NORAD_CAT_ID,OBJECT_NAME,OBJECT_TYPE,EPOCH,MEAN_MOTION,ECCENTRICITY,INCLINATION,RA_OF_ASC_NODE,ARG_OF_PERICENTER,MEAN_ANOMALY,BSTAR,MEAN_MOTION_DOT,MEAN_MOTION_DDOT,TLE_LINE0,TLE_LINE1,TLE_LINE2,SEMIMAJOR_AXIS,PERIOD,APOGEE,PERIGEE,DECAYED
55780.0,STARLINK-5819,PAYLOAD,2024-08-15 17:36:48,14.98330417,0.0003153,69.9983,223.867,265.7436,94.3363,3.5608e-05,3.32e-06,0.0,0 STARLINK-5819,1 55780U 23028AR  24228.73389357  .00000332  00000-0  35608-4 0  9997,2 55780  69.9983 223.8670 0003153 265.7436  94.3363 14.98330417 81012,6950.192,96.107,574.248,569.865,0.0
55780.0,STARLINK-5819,PAYLOAD,2024-08-16 09:38:08,14.98332162,0.0003164,69.9983,222.1834,264.9287,95.1511,0.00027522,3.193e-05,0.0,0 STARLINK-5819,1 55780U 23028AR  24229.40149076  .00003193  00000-0  27522-3 0  9997,2 55780  69.9983 222.1834 0003164 264.9287  95.1511 14.98332162 81117,6950.186,96.107,574.25,569.852,0.0
55780.0,STARLINK-5819,PAYLOAD,2024-08-17 04:51:45,14.98336448,0.0003111,69.9986,220.1634,264.8291,95.2513,0.00019085,2.185e-05,0.0,0 STARLINK-5819,1 55780U 23028AR  24230.20261013  .00002185  00000-0  19085-3 0  9998,2 55780  69.9986 220.1634 0003111 264.8291  95.2513 14.98336448 81239,6950.173,96.107,574.2,569.876,0.0
55780.0,STARLINK-5819,PAYLOAD,2024-08-17 08:04:01,14.98338918,0.0003127,69.9986,219.8268,264.8373,95.243,0.00019401,2.223e-05,0.0,0 STARLINK-5819,1 55780U 23028AR  24230.33612828  .00002223  00000-0  19401-3 0  9991,2 55780  69.9986 219.8268 0003127 264.8373  95.2430 14.98338918 81259,6950.165,96.106,574.204,569.857,0.0
55780.0,STARLINK-5819,PAYLOAD,2024-08-18 04:53:46,14.98341449,0.0002993,69.9995,217.6393,265.529,94.5527,-8.2808e-05,-1.081e-05,0.0,0 STARLINK-5819,1 55780U 23028AR  24231.20400683 -.00001081  00000-0 -82808-4 0  9997,2 55780  69.9995 217.6393 0002993 265.5290  94.5527 14.98341449 81386,6950.157,96.106,574.103,569.942,0.0
55780.0,STARLINK-5819,PAYLOAD,2024-08-18 09:42:11,14.98298211,0.0003174,69.9995,217.1345,258.9897,101.0905,0.00066209,7.809e-05,0.0,0 STARLINK-5819,1 55780U 23028AR  24231.40430163  .00007809  00000-0  66209-3 0  9993,2 55780  69.9995 217.1345 0003174 258.9897 101.0905 14.98298211 81415,6950.291,96.109,574.362,569.95,0.0
55780.0,STARLINK-5819,PAYLOAD,2024-08-18 20:55:06,14.98337014,0.0002952,69.9996,215.9559,265.1536,94.9286,8.6979e-06,1.1e-07,0.0,0 STARLINK-5819,1 55780U 23028AR  24231.87160585  .00000011  00000-0  86979-5 0  9998,2 55780  69.9996 215.9559 0002952 265.1536  94.9286 14.98337014 81486,6950.171,96.107,574.088,569.985,0.0
55780.0,STARLINK-5819,PAYLOAD,2024-08-19 08:08:03,14.98333153,0.0002994,69.9995,214.7774,267.9793,92.1024,-2.278e-05,-3.65e-06,0.0,0 STARLINK-5819,1 55780U 23028AR  24232.33892730 -.00000365  00000-0 -22780-4 0  9997,2 55780  69.9995 214.7774 0002994 267.9793  92.1024 14.98333153 81550,6950.183,96.107,574.129,569.967,0.0
55780.0,STARLINK-5819,PAYLOAD,2024-08-20 04:57:48,14.98329646,0.0003053,69.9992,212.5891,268.1992,91.8817,5.0918e-05,5.15e-06,0.0,0 STARLINK-5819,1 55780U 23028AR  24233.20680738  .00000515  00000-0  50918-4 0  9996,2 55780  69.9992 212.5891 0003053 268.1992  91.8817 14.98329646 81686,6950.194,96.107,574.181,569.937,0.0
55780.0,STARLINK-5819,PAYLOAD,2024-08-20 08:10:04,14.9833049,0.0003068,69.9992,212.2525,268.8344,91.2463,5.7349e-05,5.91e-06,0.0,0 STARLINK-5819,1 55780U 23028AR  24233.34032674  .00000591  00000-0  57349-4 0  9990,2 55780  69.9992 212.2525 0003068 268.8344  91.2463 14.98330490 81704,6950.191,96.107,574.189,569.924,0.0
55780.0,STARLINK-5819,PAYLOAD,2024-08-21 04:59:48,14.98331779,0.0003055,69.9991,210.0645,268.8171,91.2638,6.9083e-05,7.31e-06,0.0,0 STARLINK-5819,1 55780U 23028AR  24234.20820559  .00000731  00000-0  69083-4 0  9997,2 55780  69.9991 210.0645 0003055 268.8171  91.2638 14.98331779 81835,6950.187,96.107,574.176,569.929,0.0
55780.0,STARLINK-5819,PAYLOAD,2024-08-21 08:12:04,14.98333461,0.000304,69.9992,209.7279,268.6382,91.4429,8.4981e-05,9.21e-06,0.0,0 STARLINK-5819,1 55780U 23028AR  24234.34172400  .00000921  00000-0  84981-4 0  9992,2 55780  69.9992 209.7279 0003040 268.6382  91.4429 14.98333461 81852,6950.182,96.107,574.16,569.934,0.0
55780.0,STARLINK-5819,PAYLOAD,2024-08-21 21:01:09,14.98330616,0.0003027,69.9992,208.3823,269.4196,90.6616,5.1431e-05,5.21e-06,0.0,0 STARLINK-5819,1 55780U 23028AR  24234.87580655  .00000521  00000-0  51431-4 0  9995,2 55780  69.9992 208.3823 0003027 269.4196  90.6616 14.98330616 81936,6950.191,96.107,574.16,569.952,0.0
55780.0,STARLINK-5819,PAYLOAD,2024-08-22 05:01:50,14.98330304,0.0003035,69.9991,207.5401,269.272,90.8091,4.0892e-05,3.95e-06,0.0,0 STARLINK-5819,1 55780U 23028AR  24235.20960702  .00000395  00000-0  40892-4 0  9996,2 55780  69.9991 207.5401 0003035 269.2720  90.8091 14.98330304 81986,6950.192,96.107,574.166,569.948,0.0
